NORAD_CAT_ID,OBJECT_NAME,OBJECT_TYPE,EPOCH,MEAN_MOTION,ECCENTRICITY,INCLINATION,RA_OF_ASC_NODE,ARG_OF_PERICENTER,MEAN_ANOMALY,BSTAR,MEAN_MOTION_DOT,MEAN_MOTION_DDOT,TLE_LINE0,TLE_LINE1,TLE_LINE2,SEMIMAJOR_AXIS,PERIOD,APOGEE,PERIGEE,DECAYED
55633.0,STARLINK-5498,PAYLOAD,2024-05-15 04:42:14,14.98358224,0.0002826,69.9998,77.3463,265.9068,94.1769,0.00035515,4.15e-05,0.0,0 STARLINK-5498,1 55633U 23021F   24136.19599832  .00004150  00000-0  35515-3 0  9994,2 55633  69.9998  77.3463 0002826 265.9068  94.1769 14.98358224 68611,6950.106,96.105,573.935,570.007,0.0
55633.0,STARLINK-5498,PAYLOAD,2024-05-15 06:18:21,14.98364877,0.0002924,70.0,77.1779,267.9586,92.1238,0.00032309,3.768e-05,0.0,0 STARLINK-5498,1 55633U 23021F   24136.26275374  .00003768  00000-0  32309-3 0  9996,2 55633  70.0000  77.1779 0002924 267.9586  92.1238 14.98364877 68926,6950.085,96.105,573.982,569.918,0.0
55633.0,STARLINK-5498,PAYLOAD,2024-05-15 20:43:35,14.98342511,0.0003122,70.0002,75.6621,268.4497,91.6304,-7.9754e-05,-1.045e-05,0.0,0 STARLINK-5498,1 55633U 23021F   24136.86360982 -.00001045  00000-0 -79754-4 0  9996,2 55633  70.0002  75.6621 0003122 268.4497  91.6304 14.98342511 68711,6950.154,96.106,574.189,569.849,0.0
55633.0,STARLINK-5498,PAYLOAD,2024-05-15 22:19:43,14.98341502,0.0003088,70.0,75.494,271.3759,88.7047,-8.7098e-05,-1.132e-05,0.0,0 STARLINK-5498,1 55633U 23021F   24136.93037026 -.00001132  00000-0 -87098-4 0  9991,2 55633  70.0000  75.4940 0003088 271.3759  88.7047 14.98341502 69021,6950.157,96.106,574.169,569.876,0.0
55633.0,STARLINK-5498,PAYLOAD,2024-05-16 12:44:55,14.98344664,0.0003038,70.0004,73.9797,270.6201,89.461,-9.0129e-05,-1.169e-05,0.0,0 STARLINK-5498,1 55633U 23021F   24137.53120280 -.00001169  00000-0 -90129-4 0  9992,2 55633  70.0004  73.9797 0003038 270.6201  89.4610 14.98344664 69113,6950.148,96.106,574.124,569.901,0.0
55633.0,STARLINK-5498,PAYLOAD,2024-05-16 19:09:27,14.98347867,0.0003069,70.0004,73.3068,268.6282,91.4526,-0.00018061,-2.248e-05,0.0,0 STARLINK-5498,1 55633U 23021F   24137.79824053 -.00002248  00000-0 -18061-3 0  9992,2 55633  70.0004  73.3068 0003069 268.6282  91.4526 14.98347867 69159,6950.138,96.106,574.136,569.87,0.0
55633.0,STARLINK-5498,PAYLOAD,2024-05-17 04:46:15,14.98356874,0.0002843,70.001,72.2974,265.2394,94.844,-5.4523e-05,-7.44e-06,0.0,0 STARLINK-5498,1 55633U 23021F   24138.19878642 -.00000744  00000-0 -54523-4 0  9993,2 55633  70.0010  72.2974 0002843 265.2394  94.8440 14.98356874 68919,6950.11,96.105,573.951,569.999,0.0
55633.0,STARLINK-5498,PAYLOAD,2024-05-17 12:46:55,14.98366428,0.0002716,70.0015,71.4533,282.6014,77.4841,-0.00068327,-8.244e-05,0.0,0 STARLINK-5498,1 55633U 23021F   24138.53258711 -.00008244  00000-0 -68327-3 0  9999,2 55633  70.0015  71.4533 0002716 282.6014  77.4841 14.98366428 69264,6950.08,96.105,573.833,570.058,0.0
55633.0,STARLINK-5498,PAYLOAD,2024-05-17 22:23:46,14.98309624,0.0003062,70.0009,70.4456,271.307,88.7738,-9.9221e-05,-1.276e-05,0.0,0 STARLINK-5498,1 55633U 23021F   24138.93317684 -.00001276  00000-0 -99221-4 0  9994,2 55633  70.0009  70.4456 0003062 271.3070  88.7738 14.98309624 69324,6950.256,96.108,574.249,569.993,0.0
55633.0,STARLINK-5498,PAYLOAD,2024-05-18 04:48:17,14.9832472,0.0003028,70.0021,69.7723,269.5925,90.4887,5.6627e-05,5.83e-06,0.0,0 STARLINK-5498,1 55633U 23021F   24139.20020479  .00000583  00000-0  56627-4 0  9999,2 55633  70.0021  69.7723 0003028 269.5925  90.4887 14.98324720 69066,6950.209,96.107,574.179,569.97,0.0
55633.0,STARLINK-5498,PAYLOAD,2024-05-18 12:48:57,14.9833477,0.000306,70.002,68.931,270.7042,89.3766,0.00018358,2.098e-05,0.0,0 STARLINK-5498,1 55633U 23021F   24139.53400055  .00002098  00000-0  18358-3 0  9998,2 55633  70.0020  68.9310 0003060 270.7042  89.3766 14.98334770 69113,6950.178,96.107,574.17,569.916,0.0
55633.0,STARLINK-5498,PAYLOAD,2024-05-18 22:25:46,14.98332747,0.0003171,70.0018,67.9192,271.5595,88.5201,0.0002642,3.061e-05,0.0,0 STARLINK-5498,1 55633U 23021F   24139.93456318  .00003061  00000-0  26420-3 0  9995,2 55633  70.0018  67.9192 0003171 271.5595  88.5201 14.98332747 69478,6950.184,96.107,574.253,569.845,0.0
55633.0,STARLINK-5498,PAYLOAD,2024-05-19 04:50:18,14.98345057,0.0002896,70.0022,67.2449,269.5018,90.5809,0.00070008,8.273e-05,0.0,0 STARLINK-5498,1 55633U 23021F   24140.20159806  .00008273  00000-0  70008-3 0  9990,2 55633  70.0022  67.2449 0002896 269.5018  90.5809 14.98345057 69511,6950.146,96.106,574.024,569.999,0.0
55633.0,STARLINK-5498,PAYLOAD,2024-05-19 20:51:39,14.98326453,0.0003436,70.0014,65.5635,277.0372,83.0396,9.1482e-05,9.99e-06,0.0,0 STARLINK-5498,1 55633U 23021F   24140.86920530  .00000999  00000-0  91482-4 0  9999,2 55633  70.0014  65.5635 0003436 277.0372  83.0396 14.98326453 69313,6950.204,96.107,574.457,569.681,0.0
55633.0,STARLINK-5498,PAYLOAD,2024-05-20 04:52:19,14.98328552,0.0003029,70.0022,64.7228,270.4204,89.6608,3.7654e-05,3.56e-06,0.0,0 STARLINK-5498,1 55633U 23021F   24141.20300468  .00000356  00000-0  37654-4 0  9998,2 55633  70.0022  64.7228 0003029 270.4204  89.6608 14.98328552 69668,6950.197,96.107,574.168,569.957,0.0
55633.0,STARLINK-5498,PAYLOAD,2024-05-20 20:53:40,14.98330083,0.0002976,70.0018,63.0402,269.513,90.5688,5.3926e-05,5.51e-06,0.0,0 STARLINK-5498,1 55633U 23021F   24141.87060616  .00000551  00000-0  53926-4 0  9996,2 55633  70.0018  63.0402 0002976 269.5130  90.5688 14.98330083 69465,6950.193,96.107,574.126,569.989,0.0
55633.0,STARLINK-5498,PAYLOAD,2024-05-21 04:54:20,14.98340628,0.0002835,70.0026,62.1977,273.5483,86.5352,0.0001724,1.965e-05,0.0,0 STARLINK-5498,1 55633U 23021F   24142.20440225  .00001965  00000-0  17240-3 0  9990,2 55633  70.0026  62.1977 0002835 273.5483  86.5352 14.98340628 69516,6950.16,96.106,573.995,570.055,0.0
55633.0,STARLINK-5498,PAYLOAD,2024-05-21 22:31:47,14.98366577,0.0002721,70.0031,60.3459,271.4362,88.6486,-0.0011996,-0.0001439,0.0,0 STARLINK-5498,1 55633U 23021F   24142.93874624 -.00014390  00000-0 -11996-2 0  9993,2 55633  70.0031  60.3459 0002721 271.4362  88.6486 14.98366577 69921,6950.08,96.105,573.836,570.054,0.0
55633.0,STARLINK-5498,PAYLOAD,2024-05-22 04:56:21,14.98343246,0.000303,70.0017,59.6729,270.3512,89.73,0.00045155,5.301e-05,0.0,0 STARLINK-5498,1 55633U 23021F   24143.20579983  .00005301  00000-0  45155-3 0  9999,2 55633  70.0017  59.6729 0003030 270.3512  89.7300 14.98343246 69661,6950.152,96.106,574.123,569.911,0.0
55633.0,STARLINK-5498,PAYLOAD,2024-05-22 08:08:36,14.98349772,0.0002984,70.0022,59.3363,268.0633,92.0185,0.00056955,6.713e-05,0.0,0 STARLINK-5498,1 55633U 23021F   24143.33931687  .00006713  00000-0  56955-3 0  9994,2 55633  70.0022  59.3363 0002984 268.0633  92.0185 14.98349772 69986,6950.132,96.106,574.071,569.923,0.0
55633.0,STARLINK-5498,PAYLOAD,2024-05-22 20:57:42,14.98330581,0.0003057,70.0022,57.9898,272.0938,87.9871,7.7489e-05,8.32e-06,0.0,0 STARLINK-5498,1 55633U 23021F   24143.87340306  .00000832  00000-0  77489-4 0  9997,2 55633  70.0022  57.9898 0003057 272.0938  87.9871 14.98330581 69767,6950.191,96.107,574.181,569.931,0.0
55633.0,STARLINK-5498,PAYLOAD,2024-05-23 12:59:02,14.98338557,0.0002921,70.0022,56.3067,266.187,93.8955,0.00099966,0.00011858,0.0,0 STARLINK-5498,1 55633U 23021F   24144.54100258  .00011858  00000-0  99966-3 0  9995,2 55633  70.0022  56.3067 0002921 266.1870  93.8955 14.98338557 70162,6950.166,96.106,574.062,570.001,0.0
55633.0,STARLINK-5498,PAYLOAD,2024-05-23 20:59:42,14.98344124,0.0002994,70.0022,55.4654,268.0761,92.0056,0.001351,0.0001607,0.0,0 STARLINK-5498,1 55633U 23021F   24144.87480125  .00016070  00000-0  13510-2 0  9996,2 55633  70.0022  55.4654 0002994 268.0761  92.0056 14.98344124 69915,6950.149,96.106,574.095,569.933,0.0
55633.0,STARLINK-5498,PAYLOAD,2024-05-24 11:24:55,14.98335741,0.0003201,70.0021,53.9502,266.7416,93.3377,0.00049462,5.815e-05,0.0,0 STARLINK-5498,1 55633U 23021F   24145.47563843  .00005815  00000-0  49462-3 0  9993,2 55633  70.0021  53.9502 0003201 266.7416  93.3377 14.98335741 70000,6950.175,96.107,574.265,569.815,0.0
55633.0,STARLINK-5498,PAYLOAD,2024-05-24 13:01:03,14.98339484,0.0003024,70.0021,53.7818,263.5349,96.5466,0.00072206,8.535e-05,0.0,0 STARLINK-5498,1 55633U 23021F   24145.54239789  .00008535  00000-0  72206-3 0  9994,2 55633  70.0021  53.7818 0003024 263.5349  96.5466 14.98339484 70317,6950.164,96.106,574.13,569.927,0.0
55633.0,STARLINK-5498,PAYLOAD,2024-05-24 22:37:51,14.98337397,0.0003158,70.002,52.772,270.0833,89.9964,0.0013167,0.00015656,0.0,0 STARLINK-5498,1 55633U 23021F   24145.94295880  .00015656  00000-0  13167-2 0  9994,2 55633  70.0020  52.7720 0003158 270.0833  89.9964 14.98337397 70372,6950.17,96.107,574.23,569.84,0.0
55633.0,STARLINK-5498,PAYLOAD,2024-05-25 13:03:04,14.98326118,0.0003231,70.0018,51.2571,267.6284,92.4505,0.0006098,7.19e-05,0.0,0 STARLINK-5498,1 55633U 23021F   24146.54380166  .00007190  00000-0  60980-3 0  9993,2 55633  70.0018  51.2571 0003231 267.6284  92.4505 14.98326118 70167,6950.205,96.107,574.316,569.824,0.0
55633.0,STARLINK-5498,PAYLOAD,2024-05-26 03:28:17,14.98333805,0.0003254,70.0016,49.7422,267.5778,92.5009,0.0016365,0.0001949,0.0,0 STARLINK-5498,1 55633U 23021F   24147.14464355  .00019490  00000-0  16365-2 0  9996,2 55633  70.0016  49.7422 0003254 267.5778  92.5009 14.98333805 70558,6950.181,96.107,574.308,569.785,0.0
55633.0,STARLINK-5498,PAYLOAD,2024-05-26 21:05:45,14.98342266,0.0003239,70.0015,47.8909,266.4698,93.609,0.00093047,0.0001103,0.0,0 STARLINK-5498,1 55633U 23021F   24147.87900167  .00011030  00000-0  93047-3 0  9997,2 55633  70.0015  47.8909 0003239 266.4698  93.6090 14.98342266 70360,6950.155,96.106,574.271,569.769,0.0
55633.0,STARLINK-5498,PAYLOAD,2024-05-26 22:41:53,14.9834385,0.0003237,70.0015,47.7226,266.4409,93.638,0.00094558,0.00011212,0.0,0 STARLINK-5498,1 55633U 23021F   24147.94576109  .00011212  00000-0  94558-3 0  9990,2 55633  70.0015  47.7226 0003237 266.4409  93.6380 14.98343850 70675,6950.15,96.106,574.265,569.765,0.0
